STARLINK-1541           
1 46052U 20055AB  26068.54276674  .00003474  00000+0  12937-3 0  9994
2 46052  53.1593 114.5667 0001223  89.1239 270.9902 15.30198741309027
HAWK-2C                 
1 47502U 21006CT  26068.67595434  .00008129  00000+0  25493-3 0  9997
2 47502  97.2417 114.9961 0006943 184.0877 176.0310 15.33286436284247
