[{"OBJECT_NAME":"STARLINK-1541","OBJECT_ID":"2020-055AB","EPOCH":"2026-03-09T13:01:35.046336","MEAN_MOTION":15.30198741,"ECCENTRICITY":0.00012232,"INCLINATION":53.1593,"RA_OF_ASC_NODE":114.5667,"ARG_OF_PERICENTER":89.1239,"MEAN_ANOMALY":270.9902,"EPHEMERIS_TYPE":0,"CLASSIFICATION_TYPE":"U","NORAD_CAT_ID":46052,"ELEMENT_SET_NO":999,"REV_AT_EPOCH":30902,"BSTAR":0.00012936602,"MEAN_MOTION_DOT":3.474e-5,"MEAN_MOTION_DDOT":0},{"OBJECT_NAME":"HAWK-2C","OBJECT_ID":"2021-006CT","EPOCH":"2026-03-09T16:13:22.454976","MEAN_MOTION":15.33286436,"ECCENTRICITY":0.0006943,"INCLINATION":97.2417,"RA_OF_ASC_NODE":114.9961,"ARG_OF_PERICENTER":184.0877,"MEAN_ANOMALY":176.031,"EPHEMERIS_TYPE":0,"CLASSIFICATION_TYPE":"U","NORAD_CAT_ID":47502,"ELEMENT_SET_NO":999,"REV_AT_EPOCH":28424,"BSTAR":0.00025492914,"MEAN_MOTION_DOT":8.129e-5,"MEAN_MOTION_DDOT":0}]
